[{"OBJECT_NAME":"ONEWEB-0007","OBJECT_ID":"2019-010D","EPOCH":"2026-03-09T15:04:07.974912","MEAN_MOTION":13.15546142,"ECCENTRICITY":0.0001539,"INCLINATION":87.8938,"RA_OF_ASC_NODE":279.1029,"ARG_OF_PERICENTER":100.661,"MEAN_ANOMALY":259.4694,"EPHEMERIS_TYPE":0,"CLASSIFICATION_TYPE":"U","NORAD_CAT_ID":44060,"ELEMENT_SET_NO":999,"REV_AT_EPOCH":33828,"BSTAR":-7.1193e-5,"MEAN_MOTION_DOT":-1.4e-7,"MEAN_MOTION_DDOT":0},{"OBJECT_NAME":"COSMOS 249 DEB","OBJECT_ID":"1968-091DH","EPOCH":"2026-03-08T22:08:16.528992","MEAN_MOTION":13.42836717,"ECCENTRICITY":0.07285142,"INCLINATION":62.844,"RA_OF_ASC_NODE":186.5027,"ARG_OF_PERICENTER":204.8122,"MEAN_ANOMALY":151.6172,"EPHEMERIS_TYPE":0,"CLASSIFICATION_TYPE":"U","NORAD_CAT_ID":19317,"ELEMENT_SET_NO":999,"REV_AT_EPOCH":83390,"BSTAR":0.00069278588,"MEAN_MOTION_DOT":1.907e-5,"MEAN_MOTION_DDOT":0}]
